LANDSAT 4               
<<<<<<< .mine
1 13367U 82072A   09144.79236225 -.00000580  00000-0 -38696-4 0  1187
2 13367  98.1848  58.4714 0019935  52.5141 307.7903 15.02185564441009
=======
1 13367U 82072A   09122.34469354 -.00000005  00000-0  48380-5 0   884
2 13367  98.1892  34.7826 0020412 125.9094 234.4027 15.02200962437630
>>>>>>> .r148
TDRS 1                  
<<<<<<< .mine
1 13969U 83026B   09143.97597127 -.00000295  00000-0  10000-3 0  8698
2 13969  13.3198   9.4571 0023088 235.1796 299.4845  1.00267101 68750
=======
1 13969U 83026B   09121.17228624 -.00000308  00000-0  10000-3 0  8571
2 13969  13.3082   9.6415 0022635 238.0114 344.7350  1.00275991 68520
>>>>>>> .r148
LANDSAT 5               
<<<<<<< .mine
1 14780U 84021A   09145.18858809  .00000041  00000-0  19171-4 0  6918
2 14780  98.2450 212.9626 0002944 161.9603 198.1702 14.57093344342033
=======
1 14780U 84021A   09122.87069118 -.00000710  00000-0 -14752-3 0  6167
2 14780  98.2454 190.8647 0001808 234.6225 125.4802 14.57088770338788
>>>>>>> .r148
ERBS                    
<<<<<<< .mine
1 15354U 84108B   09144.68233176 -.00000205  00000-0  48314-5 0  1123
2 15354  56.9879 252.3420 0020603  41.6758 318.5849 15.15769899348490
=======
1 15354U 84108B   09121.92907313 -.00000122  00000-0  90162-5 0   929
2 15354  56.9901 346.2774 0016389   3.7744 356.3416 15.15755757345047
>>>>>>> .r148
TDRS 3                  
<<<<<<< .mine
1 19548U 88091B   09144.71047700 -.00000188  00000-0  10000-3 0  2600
2 19548  11.7961  40.1536 0023640 320.2524 222.4902  1.00276716 62904
=======
1 19548U 88091B   09121.78679439 -.00000199  00000-0  10000-3 0  2457
2 19548  11.7536  40.3845 0024287 318.0865 229.4339  1.00269358 62677
>>>>>>> .r148
TDRS 4                  
<<<<<<< .mine
1 19883U 89021B   09144.20421770 -.00000275  00000-0  10000-3 0  5861
2 19883  10.4502  52.1131 0002439 345.2398 232.2438  1.00269441246472
=======
1 19883U 89021B   09121.37498528 -.00000289  00000-0  10000-3 0  5729
2 19883  10.4049  52.3505 0002803 306.0902 310.0572  1.00277134246243
>>>>>>> .r148
HST                     
<<<<<<< .mine
1 20580U 90037B   09143.50804273  .00000954  00000-0  60572-4 0  3985
2 20580  28.4709 263.3630 0002932  19.6409 340.3038 15.00805724846141
=======
1 20580U 90037B   09121.95894748  .00000283  00000-0  90262-5 0  3813
2 20580  28.4687  43.9645 0003917 171.6546 188.4107 15.00479109842901
>>>>>>> .r148
TDRS 5                  
<<<<<<< .mine
1 21639U 91054B   09144.49898510  .00000110  00000-0  10000-3 0  4500
2 21639   9.8064  55.8888 0011035 330.5840 227.5968  1.00272377 65228
=======
1 21639U 91054B   09120.71724873  .00000100  00000-0  10000-3 0  4362
2 21639   9.7526  56.1704 0009981 326.1809 287.2531  1.00280808 64983
>>>>>>> .r148
UARS                    
<<<<<<< .mine
1 21701U 91063B   09144.92091507  .00003418  00000-0  49984-4 0  6778
2 21701  56.9703 106.5404 0081864 125.0710 235.8057 15.55116940975600
=======
1 21701U 91063B   09122.22811705  .00003150  00000-0  46820-4 0  6552
2 21701  56.9722 206.0401 0082827  84.2138 276.8360 15.54920429972078
>>>>>>> .r148
TOPEX/POSEIDON          
<<<<<<< .mine
1 22076U 92052A   09144.98043509 -.00000038  00000-0  10000-3 0  3609
2 22076  66.0320 118.9150 0007924 265.4749  94.5354 12.80947506785271
=======
1 22076U 92052A   09121.87026800 -.00000038  00000-0  10000-3 0  3753
2 22076  66.0318 166.9177 0007918 264.9166  95.0945 12.80947033782319
>>>>>>> .r148
TDRS 6                  
<<<<<<< .mine
1 22314U 93003B   09142.52647611  .00000106  00000-0  10000-3 0  4744
2 22314   9.1489  58.9906 0006587 355.0199 204.9125  1.00268240 59921
=======
1 22314U 93003B   09122.56980637  .00000085  00000-0  10000-3 0  4638
2 22314   9.1040  59.2256 0006336 327.0803 228.0731  1.00276551 59721
>>>>>>> .r148
TDRS 7                  
<<<<<<< .mine
1 23613U 95035B   09142.53239837  .00000130  00000-0  10000-3 0  5201
2 23613  10.9829  48.4830 0005270 353.3823 239.3237  1.00269061 50733
=======
1 23613U 95035B   09121.48881959  .00000111  00000-0  10000-3 0  5074
2 23613  10.9399  48.7055 0004673 352.5683 203.6953  1.00281023 50526
>>>>>>> .r148
RXTE (XTE)              
<<<<<<< .mine
1 23757U 95074A   09144.48370053  .00000953  00000-0  17910-4 0  8748
2 23757  22.9841 204.2396 0008303  49.4035 310.7159 15.27237985742140
=======
1 23757U 95074A   09121.87967738  .00001013  00000-0  20078-4 0  8576
2 23757  22.9837   5.3075 0008588 125.7614 234.3675 15.27203352738684
>>>>>>> .r148
TRMM                    
<<<<<<< .mine
1 25063U 97074A   09144.37621453  .00003108  00000-0  43827-4 0   713
2 25063  34.9643 136.0117 0001066 267.5816  92.4800 15.56075688656386
=======
1 25063U 97074A   09122.49828160  .00003147  00000-0  44604-4 0   533
2 25063  34.9667 280.7287 0001035 293.4298  66.6344 15.55934683652970
>>>>>>> .r148
KIKU-7 (ETS-VII)        
<<<<<<< .mine
1 25064U 97074B   09145.22918112  .00000273  00000-0  12055-4 0  8100
2 25064  34.9596 176.9016 0001069  95.2102 264.8734 15.25156110637502
=======
1 25064U 97074B   09122.58024351  .00000370  00000-0  15832-4 0  7942
2 25064  34.9601 319.8778 0002995 282.2695  77.7693 15.25126171634041
>>>>>>> .r148
ISS (ZARYA)             
<<<<<<< .mine
1 25544U 98067A   09144.87289253  .00013294  00000-0  99319-4 0  9121
2 25544  51.6406  66.5085 0009754  40.0356  32.2950 15.73040407602287
=======
1 25544U 98067A   09122.51910537  .00008060  00000-0  63355-4 0  7814
2 25544  51.6392 181.0832 0009091 316.4012 184.7415 15.72541463598760
>>>>>>> .r148
LANDSAT 7               
<<<<<<< .mine
1 25682U 99020A   09145.22466454 -.00000012  00000-0  74260-5 0  7799
2 25682  98.2096 213.5730 0000834  68.5907 291.5403 14.57111442537739
=======
1 25682U 99020A   09122.76970646  .00000022  00000-0  14905-4 0  7065
2 25682  98.2097 191.4357 0001511  74.3927 285.7438 14.57109103534460
>>>>>>> .r148
FUSE 1                  
<<<<<<< .mine
1 25791U 99035A   09142.27397399  .00000180  00000-0  81566-7 0  4420
2 25791  24.9850 126.7772 0009637   2.1118 357.9411 14.41794004522658
=======
1 25791U 99035A   09122.33921541  .00000346  00000-0  49969-4 0  4261
2 25791  24.9870 248.9843 0010855 152.9474 207.1694 14.41793209519773
>>>>>>> .r148
TERRA                   
<<<<<<< .mine
1 25994U 99068A   09145.17531917  .00000064  00000-0  24145-4 0  7093
2 25994  98.2027 220.5192 0001679  96.8579 263.2826 14.57121049501804
=======
1 25994U 99068A   09122.78915676  .00000073  00000-0  26220-4 0  6436
2 25994  98.2018 198.4698 0001411 112.3971 247.7368 14.57116841498540
>>>>>>> .r148
TDRS 8                  
<<<<<<< .mine
1 26388U 00034A   09144.65333052 -.00000211  00000-0  10000-3 0  9628
2 26388   1.3456 110.4249 0004861 316.7978 139.5997  1.00270223 32699
=======
1 26388U 00034A   09121.80539719 -.00000232  00000-0  10000-3 0  9441
2 26388   1.2958 111.9156 0004312 292.1108 194.8971  1.00275975 32461
>>>>>>> .r148
EO-1                    
<<<<<<< .mine
1 26619U 00075A   09145.17040223  .00000109  00000-0  31042-4 0   809
2 26619  98.1461 212.8802 0010513  26.4143 333.7608 14.62019651452903
=======
1 26619U 00075A   09122.78970016 -.00001157  00000-0 -22222-3 0   134
2 26619  98.1442 190.8186 0010670  89.8984 270.3420 14.61840354449637
>>>>>>> .r148
TIMED                   
<<<<<<< .mine
1 26998U 01055B   09144.74699547  .00000094  00000-0  15562-4 0  3006
2 26998  74.0752  36.3767 0001556 178.7026 181.4171 14.84072590404046
=======
1 26998U 01055B   09122.02959193  .00000022  00000-0  69296-5 0  2823
2 26998  74.0731  81.3019 0002395 215.9826 144.1172 14.84067054400678
>>>>>>> .r148
TDRS 9                  
<<<<<<< .mine
1 27389U 02011A   09144.42070236 -.00000264  00000-0  10000-3 0  3895
2 27389   2.3991 233.8908 0008126 167.9507 289.4542  1.00265634 27943
=======
1 27389U 02011A   09121.39923269 -.00000291  00000-0  10000-3 0  3800
2 27389   2.4498 234.6917 0008335 153.2265 273.1217  1.00273366 27711
>>>>>>> .r148
AQUA                    
<<<<<<< .mine
1 27424U 02022A   09144.64806957 -.00000004  00000-0  90882-5 0  3045
2 27424  98.1778  87.3768 0000695 102.3380 257.7878 14.57124276375331
=======
1 27424U 02022A   09122.26195735 -.00000371  00000-0 -72446-4 0  2743
2 27424  98.1818  65.3969 0000642  42.9432 317.1823 14.57119847372071
>>>>>>> .r148
TDRS 10                 
<<<<<<< .mine
1 27566U 02055A   09143.95647336 -.00000251  00000-0  00000+0 0   997
2 27566   1.1558 281.3068 0002554 159.0248 104.8670  1.00268117 23761
=======
1 27566U 02055A   09121.55135265 -.00000276  00000-0  00000-0 0   855
2 27566   1.2127 280.6443 0001497 151.0541 305.5409  1.00272001 23549
>>>>>>> .r148
SORCE                   
<<<<<<< .mine
1 27651U 03004A   09144.68815424 -.00000003  00000-0  15447-4 0  9094
2 27651  39.9956  83.2166 0026792 184.4388 175.6174 14.82179000342802
=======
1 27651U 03004A   09121.64405782  .00000020  00000-0  18343-4 0  8902
2 27651  39.9962 210.3337 0026610  19.4546 340.7236 14.82173147339383
>>>>>>> .r148
GALEX                   
<<<<<<< .mine
1 27783U 03017A   09143.86912236  .00000107  00000-0  29005-6 0  6764
2 27783  28.9986  47.0493 0004427 215.8221 144.2042 14.59747123324229
=======
1 27783U 03017A   09122.19354051  .00000252  00000-0  30300-4 0  6570
2 27783  28.9983 178.9581 0003577 359.3975   0.6619 14.59744536321051
>>>>>>> .r148
GP-B                    
<<<<<<< .mine
1 28230U 04014A   09142.47516609  .00000019  00000-0  45127-6 0  5157
2 28230  89.9406 158.1333 0001989  94.4102 265.7349 14.75971281273984
=======
1 28230U 04014A   09122.00033496 -.00000074  00000-0 -13090-4 0  4965
2 28230  89.9428 158.2707 0002170  65.0218 295.1229 14.75967598270964
>>>>>>> .r148
AURA                    
<<<<<<< .mine
1 28376U 04026A   09144.79088792  .00000018  00000-0  13904-4 0  5071
2 28376  98.1743  89.6678 0000992  94.9622 265.1694 14.57135918258402
